[{"OBJECT_NAME":"STARLINK-31731","OBJECT_ID":"2024-071Q","EPOCH":"2026-03-09T03:05:19.525344","MEAN_MOTION":15.27579788,"ECCENTRICITY":1.589e-5,"INCLINATION":42.9998,"RA_OF_ASC_NODE":342.5812,"ARG_OF_PERICENTER":254.2936,"MEAN_ANOMALY":105.7898,"EPHEMERIS_TYPE":0,"CLASSIFICATION_TYPE":"U","NORAD_CAT_ID":59498,"ELEMENT_SET_NO":999,"REV_AT_EPOCH":10812,"BSTAR":1.436676e-5,"MEAN_MOTION_DOT":1.34e-6,"MEAN_MOTION_DDOT":0},{"OBJECT_NAME":"CZ-4B R\/B","OBJECT_ID":"2014-079B","EPOCH":"2026-03-09T22:52:27.338880","MEAN_MOTION":15.04904185,"ECCENTRICITY":0.01415279,"INCLINATION":98.4648,"RA_OF_ASC_NODE":154.7469,"ARG_OF_PERICENTER":308.4035,"MEAN_ANOMALY":50.4548,"EPHEMERIS_TYPE":0,"CLASSIFICATION_TYPE":"U","NORAD_CAT_ID":40337,"ELEMENT_SET_NO":999,"REV_AT_EPOCH":61279,"BSTAR":0.00019142184,"MEAN_MOTION_DOT":3.298e-5,"MEAN_MOTION_DDOT":0}]
